{"type": "FeatureCollection", "features": [ {"type": "Feature", "properties": {"norad_id": 30647, "name": "FENGYUN 1C DEB", "group": "fengyun-1c-debris", "lat": 38.92431114133225, "lon": -97.35424748351603, "alt_km": 721.84827539251, "timestamp": "2025-12-04T13:52:00.720430+00:00", "meta": {"OBJECT_NAME": "FENGYUN 1C DEB", "OBJECT_ID": "1999-025APE", "EPOCH": "2025-12-02T19:03:39.332736", "MEAN_MOTION": 14.56138584, "ECCENTRICITY": 0.00287565, "INCLINATION": 98.9885, "RA_OF_ASC_NODE": 268.0697, "ARG_OF_PERICENTER": 206.5245, "MEAN_ANOMALY": 208.7008, "EPHEMERIS_TYPE": 0, "CLASSIFICATION_TYPE": "U", "NORAD_CAT_ID": 30647, "ELEMENT_SET_NO": 999, "REV_AT_EPOCH": 97844, "BSTAR": 0.0032090163, "MEAN_MOTION_DOT": 0.00014215, "MEAN_MOTION_DDOT": 0}, "tle": {"line1": "1 30647U 99025APE 25336.79420524  .00014215  00000+0  32090-2 0  9995", "line2": "2 30647  98.9885 268.0697 0028756 206.5245 208.7008 14.56138584978441"}}, "geometry": {"type": "Point", "coordinates": [-97.35424748351603, 38.92431114133225]}}, {"type": "Feature", "properties": {"norad_id": 30648, "name": "FENGYUN 1C DEB", "group": "fengyun-1c-debris", "lat": 69.79809612001463, "lon": 48.635314234880816, "alt_km": 721.2897788125238, "timestamp": "2025-12-04T13:52:00.720440+00:00", "meta": {"OBJECT_NAME": "FENGYUN 1C DEB", "OBJECT_ID": "1999-025APF", "EPOCH": "2025-12-04T05:29:32.588160", "MEAN_MOTION": 14.47895212, "ECCENTRICITY": 0.00349614, "INCLINATION": 98.6435, "RA_OF_ASC_NODE": 72.6964, "ARG_OF_PERICENTER": 152.7552, "MEAN_ANOMALY": 261.5844, "EPHEMERIS_TYPE": 0, "CLASSIFICATION_TYPE": "U", "NORAD_CAT_ID": 30648, "ELEMENT_SET_NO": 999, "REV_AT_EPOCH": 97743, "BSTAR": 0.0058313703, "MEAN_MOTION_DOT": 0.00021795, "MEAN_MOTION_DDOT": 0}, "tle": {"line1": "1 30648U 99025APF 25338.22884940  .00021795  00000+0  58314-2 0  9990", "line2": "2 30648  98.6435  72.6964 0034961 152.7552 261.5844 14.47895212977435"}}, "geometry": {"type": "Point", "coordinates": [48.635314234880816, 69.79809612001463]}}, {"type": "Feature", "properties": {"norad_id": 30649, "name": "FENGYUN 1C DEB", "group": "fengyun-1c-debris", "lat": 45.989759091610445, "lon": 64.55856151312061, "alt_km": 820.7376790162234, "timestamp": "2025-12-04T13:52:00.720450+00:00", "meta": {"OBJECT_NAME": "FENGYUN 1C DEB", "OBJECT_ID": "1999-025APG", "EPOCH": "2025-12-04T05:32:08.742336", "MEAN_MOTION": 14.29395425, "ECCENTRICITY": 0.00513723, "INCLINATION": 98.81, "RA_OF_ASC_NODE": 73.4459, "ARG_OF_PERICENTER": 195.384, "MEAN_ANOMALY": 226.4513, "EPHEMERIS_TYPE": 0, "CLASSIFICATION_TYPE": "U", "NORAD_CAT_ID": 30649, "ELEMENT_SET_NO": 999, "REV_AT_EPOCH": 96942, "BSTAR": 0.0046976648, "MEAN_MOTION_DOT": 0.00012122, "MEAN_MOTION_DDOT": 0}, "tle": {"line1": "1 30649U 99025APG 25338.23065674  .00012122  00000+0  46977-2 0  9993", "line2": "2 30649  98.8100  73.4459 0051372 195.3840 226.4513 14.29395425969427"}}, "geometry": {"type": "Point", "coordinates": [64.55856151312061, 45.989759091610445]}}, {"type": "Feature", "properties": {"norad_id": 30650, "name": "FENGYUN 1C DEB", "group": "fengyun-1c-debris", "lat": 38.55193186636958, "lon": -153.649193133942, "alt_km": 826.3065691759002, "timestamp": "2025-12-04T13:52:00.720460+00:00", "meta": {"OBJECT_NAME": "FENGYUN 1C DEB", "OBJECT_ID": "1999-025APH", "EPOCH": "2025-12-04T01:27:04.626144", "MEAN_MOTION": 14.13857857, "ECCENTRICITY": 0.00720087, "INCLINATION": 99.2046, "RA_OF_ASC_NODE": 18.3939, "ARG_OF_PERICENTER": 213.6301, "MEAN_ANOMALY": 176.2819, "EPHEMERIS_TYPE": 0, "CLASSIFICATION_TYPE": "U", "NORAD_CAT_ID": 30650, "ELEMENT_SET_NO": 999, "REV_AT_EPOCH": 96176, "BSTAR": 0.003070229, "MEAN_MOTION_DOT": 5.92e-05, "MEAN_MOTION_DDOT": 0}, "tle": {"line1": "1 30650U 99025APH 25338.06047021  .00005920  00000+0  30702-2 0  9999", "line2": "2 30650  99.2046  18.3939 0072008 213.6301 176.2819 14.13857857961764"}}, "geometry": {"type": "Point", "coordinates": [-153.649193133942, 38.55193186636958]}}, {"type": "Feature", "properties": {"norad_id": 30652, "name": "FENGYUN 1C DEB", "group": "fengyun-1c-debris", "lat": 22.9211239987869, "lon": 8.18246465820033, "alt_km": 866.54566739028, "timestamp": "2025-12-04T13:52:00.720470+00:00", "meta": {"OBJECT_NAME": "FENGYUN 1C DEB", "OBJECT_ID": "1999-025APJ", "EPOCH": "2025-12-03T02:13:24.980736", "MEAN_MOTION": 14.07800007, "ECCENTRICITY": 0.00074197, "INCLINATION": 98.7864, "RA_OF_ASC_NODE": 10.4874, "ARG_OF_PERICENTER": 296.2066, "MEAN_ANOMALY": 124.4148, "EPHEMERIS_TYPE": 0, "CLASSIFICATION_TYPE": "U", "NORAD_CAT_ID": 30652, "ELEMENT_SET_NO": 999, "REV_AT_EPOCH": 96558, "BSTAR": 0.0001425391, "MEAN_MOTION_DOT": 1.99e-06, "MEAN_MOTION_DDOT": 0}, "tle": {"line1": "1 30652U 99025APJ 25337.09265024  .00000199  00000+0  14254-3 0  9996", "line2": "2 30652  98.7864  10.4874 0007419 296.2066 124.4148 14.07800007965580"}}, "geometry": {"type": "Point", "coordinates": [8.18246465820033, 22.9211239987869]}}, {"type": "Feature", "properties": {"norad_id": 30654, "name": "FENGYUN 1C DEB", "group": "fengyun-1c-debris", "lat": 61.37017240776513, "lon": 98.85089509976187, "alt_km": 804.378169353191, "timestamp": "2025-12-04T13:52:00.720480+00:00", "meta": {"OBJECT_NAME": "FENGYUN 1C DEB", "OBJECT_ID": "1999-025APL", "EPOCH": "2025-12-04T06:32:20.410944", "MEAN_MOTION": 14.1704213, "ECCENTRICITY": 0.00346341, "INCLINATION": 99.2408, "RA_OF_ASC_NODE": 261.1828, "ARG_OF_PERICENTER": 120.5013, "MEAN_ANOMALY": 239.9587, "EPHEMERIS_TYPE": 0, "CLASSIFICATION_TYPE": "U", "NORAD_CAT_ID": 30654, "ELEMENT_SET_NO": 999, "REV_AT_EPOCH": 96560, "BSTAR": 0.0022424713, "MEAN_MOTION_DOT": 4.492e-05, "MEAN_MOTION_DDOT": 0}, "tle": {"line1": "1 30654U 99025APL 25338.27245846  .00004492  00000+0  22425-2 0  9997", "line2": "2 30654  99.2408 261.1828 0034634 120.5013 239.9587 14.17042130965604"}}, "geometry": {"type": "Point", "coordinates": [98.85089509976187, 61.37017240776513]}}, {"type": "Feature", "properties": {"norad_id": 30656, "name": "FENGYUN 1C DEB", "group": "fengyun-1c-debris", "lat": 18.427443197589668, "lon": -24.796247550010325, "alt_km": 728.0205409480695, "timestamp": "2025-12-04T13:52:00.720490+00:00", "meta": {"OBJECT_NAME": "FENGYUN 1C DEB", "OBJECT_ID": "1999-025APN", "EPOCH": "2025-12-04T04:49:01.703424", "MEAN_MOTION": 14.45071852, "ECCENTRICITY": 0.00303801, "INCLINATION": 99.0178, "RA_OF_ASC_NODE": 151.7706, "ARG_OF_PERICENTER": 112.4563, "MEAN_ANOMALY": 247.9848, "EPHEMERIS_TYPE": 0, "CLASSIFICATION_TYPE": "U", "NORAD_CAT_ID": 30656, "ELEMENT_SET_NO": 999, "REV_AT_EPOCH": 96962, "BSTAR": 0.0068722844, "MEAN_MOTION_DOT": 0.00024188, "MEAN_MOTION_DDOT": 0}, "tle": {"line1": "1 30656U 99025APN 25338.20071416  .00024188  00000+0  68723-2 0  9997", "line2": "2 30656  99.0178 151.7706 0030380 112.4563 247.9848 14.45071852969620"}}, "geometry": {"type": "Point", "coordinates": [-24.796247550010325, 18.427443197589668]}}, {"type": "Feature", "properties": {"norad_id": 30657, "name": "FENGYUN 1C DEB", "group": "fengyun-1c-debris", "lat": 64.22078745129451, "lon": -84.83932346736083, "alt_km": 759.8867085707225, "timestamp": "2025-12-04T13:52:00.720500+00:00", "meta": {"OBJECT_NAME": "FENGYUN 1C DEB", "OBJECT_ID": "1999-025APP", "EPOCH": "2025-12-03T05:52:12.505152", "MEAN_MOTION": 14.38387352, "ECCENTRICITY": 0.0015794, "INCLINATION": 98.8369, "RA_OF_ASC_NODE": 74.9988, "ARG_OF_PERICENTER": 15.6712, "MEAN_ANOMALY": 38.7512, "EPHEMERIS_TYPE": 0, "CLASSIFICATION_TYPE": "U", "NORAD_CAT_ID": 30657, "ELEMENT_SET_NO": 999, "REV_AT_EPOCH": 97096, "BSTAR": 0.0030345, "MEAN_MOTION_DOT": 9.229e-05, "MEAN_MOTION_DDOT": 0}, "tle": {"line1": "1 30657U 99025APP 25337.24458918  .00009229  00000+0  30345-2 0  9995", "line2": "2 30657  98.8369  74.9988 0015794  15.6712  38.7512 14.38387352970960"}}, "geometry": {"type": "Point", "coordinates": [-84.83932346736083, 64.22078745129451]}}, {"type": "Feature", "properties": {"norad_id": 30658, "name": "FENGYUN 1C DEB", "group": "fengyun-1c-debris", "lat": 59.91388596591745, "lon": -3.0453903754268175, "alt_km": 1065.2466572880367, "timestamp": "2025-12-04T13:52:00.720510+00:00", "meta": {"OBJECT_NAME": "FENGYUN 1C DEB", "OBJECT_ID": "1999-025APQ", "EPOCH": "2025-12-03T01:12:41.803776", "MEAN_MOTION": 13.87127057, "ECCENTRICITY": 0.01832033, "INCLINATION": 98.4391, "RA_OF_ASC_NODE": 10.4218, "ARG_OF_PERICENTER": 254.1059, "MEAN_ANOMALY": 103.9843, "EPHEMERIS_TYPE": 0, "CLASSIFICATION_TYPE": "U", "NORAD_CAT_ID": 30658, "ELEMENT_SET_NO": 999, "REV_AT_EPOCH": 94550, "BSTAR": 0.0023182779, "MEAN_MOTION_DOT": 3.066e-05, "MEAN_MOTION_DDOT": 0}, "tle": {"line1": "1 30658U 99025APQ 25337.05048384  .00003066  00000+0  23183-2 0  9992", "line2": "2 30658  98.4391  10.4218 0183203 254.1059 103.9843 13.87127057945509"}}, "geometry": {"type": "Point", "coordinates": [-3.0453903754268175, 59.91388596591745]}}, {"type": "Feature", "properties": {"norad_id": 30660, "name": "FENGYUN 1C DEB", "group": "fengyun-1c-debris", "lat": 80.6618032978484, "lon": -44.62714249543641, "alt_km": 603.0651266166815, "timestamp": "2025-12-04T13:52:00.720521+00:00", "meta": {"OBJECT_NAME": "FENGYUN 1C DEB", "OBJECT_ID": "1999-025APS", "EPOCH": "2025-12-04T05:30:37.285344", "MEAN_MOTION": 14.87379466, "ECCENTRICITY": 0.01380291, "INCLINATION": 98.143, "RA_OF_ASC_NODE": 74.4719, "ARG_OF_PERICENTER": 2.3032, "MEAN_ANOMALY": 27.4199, "EPHEMERIS_TYPE": 0, "CLASSIFICATION_TYPE": "U", "NORAD_CAT_ID": 30660, "ELEMENT_SET_NO": 999, "REV_AT_EPOCH": 658, "BSTAR": 0.0013223446, "MEAN_MOTION_DOT": 0.00014202, "MEAN_MOTION_DDOT": 0}, "tle": {"line1": "1 30660U 99025APS 25338.22959821  .00014202  00000+0  13223-2 0  9990", "line2": "2 30660  98.1430  74.4719 0138029   2.3032  27.4199 14.87379466  6583"}}, "geometry": {"type": "Point", "coordinates": [-44.62714249543641, 80.6618032978484]}}]}